[{"OBJECT_NAME":"KX-09","OBJECT_ID":"2019-058B","EPOCH":"2026-03-09T23:04:56.318016","MEAN_MOTION":14.96388453,"ECCENTRICITY":0.00095225,"INCLINATION":97.7825,"RA_OF_ASC_NODE":82.8152,"ARG_OF_PERICENTER":321.3855,"MEAN_ANOMALY":38.6684,"EPHEMERIS_TYPE":0,"CLASSIFICATION_TYPE":"U","NORAD_CAT_ID":44520,"ELEMENT_SET_NO":999,"REV_AT_EPOCH":35519,"BSTAR":0.00022385026,"MEAN_MOTION_DOT":2.479e-5,"MEAN_MOTION_DDOT":0},{"OBJECT_NAME":"STARLINK-5494","OBJECT_ID":"2023-021Y","EPOCH":"2026-03-09T16:51:14.611680","MEAN_MOTION":14.98329625,"ECCENTRICITY":0.00030187,"INCLINATION":70.0012,"RA_OF_ASC_NODE":184.4107,"ARG_OF_PERICENTER":264.8405,"MEAN_ANOMALY":95.2409,"EPHEMERIS_TYPE":0,"CLASSIFICATION_TYPE":"U","NORAD_CAT_ID":55650,"ELEMENT_SET_NO":999,"REV_AT_EPOCH":16879,"BSTAR":2.6766873e-5,"MEAN_MOTION_DOT":2.26e-6,"MEAN_MOTION_DDOT":0}]
